DELTA 2 R/B(1)          
1 20453U 90008B   26052.70698948  .00055668  00000+0  70651-3 0  9998
2 20453  35.6040 279.5577 0088670 109.6621 251.3708 15.53623915923640
COSMOS 2058             
1 20465U 90010A   26052.49224217  .00003977  00000+0  23515-3 0  9997
2 20465  82.4668  63.3850 0010602  38.2884 321.9097 15.11162641939796
SL-14 R/B               
1 20466U 90010B   26052.70198911  .00000331  00000+0  37152-4 0  9997
2 20466  82.5005 282.4092 0019738 357.0878   3.0219 14.83553947926116
SL-14 R/B               
1 20511U 90018B   26052.50187289  .00000403  00000+0  47618-4 0  9998
2 20511  82.5179 238.2225 0017187 141.4900 218.7545 14.82125377920182
HST                     
1 20580U 90037B   26052.56349540  .00007071  00000+0  23461-3 0  9998
2 20580  28.4686 149.9853 0001090 298.8097  61.2389 15.29203976770842
SL-16 R/B               
1 20625U 90046B   26052.22602582  .00000161  00000+0  10782-3 0  9994
2 20625  71.0018 332.4894 0015564 322.3236  37.6795 14.15014255846068
COSMOS 2084             
1 20663U 90055A   26052.38336158  .00002619  00000+0  19435-3 0  9990
2 20663  62.7909  31.1865 0019578 186.3248 173.7609 15.05535348933869
SL-6 R/B(2)             
1 20666U 90055D   26052.67640792  .00001762  00000+0  14254-3 0  9999
2 20666  62.7836 308.3043 0022349 342.8305  17.2035 15.03510591935780
SL-8 R/B                
1 20775U 90078B   26052.64685037  .00013672  00000+0  40090-3 0  9993
2 20775  82.8999 265.7336 0365631  67.8033 296.1549 14.88486037806910
SL-8 R/B                
1 21088U 91006B   26052.72726197  .00000045  00000+0  29694-4 0  9993
2 21088  82.9454 181.9121 0023715  81.1079  31.3611 13.77492497761877
OKEAN-3                 
1 21397U 91039A   26052.78589110  .00003292  00000+0  23157-3 0  9994
2 21397  82.5209 352.2470 0015203  30.4575 329.7531 15.04678428862649
COSMOS 2151             
1 21422U 91042A   26052.80747928  .00001590  00000+0  12540-3 0  9996
2 21422  82.4944  98.9994 0014040 111.1541 249.1185 15.00038943860811
