CCSDS_OMM_VERS = 2.0
CREATION_DATE  = 
ORIGINATOR     = 

OBJECT_NAME    = DELTA 2 R/B(1)
OBJECT_ID      = 1990-008B
CENTER_NAME    = EARTH
REF_FRAME      = TEME
TIME_SYSTEM    = UTC
MEAN_ELEMENT_THEORY = SGP/SGP4

EPOCH          = 2026-02-21T16:58:03.891072
MEAN_MOTION    = 15.53623915
ECCENTRICITY   = .008867
INCLINATION    = 35.6040
RA_OF_ASC_NODE = 279.5577
ARG_OF_PERICENTER = 109.6621
MEAN_ANOMALY   = 251.3708

EPHEMERIS_TYPE = 0
CLASSIFICATION_TYPE = U
NORAD_CAT_ID   = 20453
ELEMENT_SET_NO = 999
REV_AT_EPOCH   = 92364
BSTAR          = .70651E-3
MEAN_MOTION_DOT = .55668E-3
MEAN_MOTION_DDOT = 0

CCSDS_OMM_VERS = 2.0
CREATION_DATE  = 
ORIGINATOR     = 

OBJECT_NAME    = COSMOS 2058
OBJECT_ID      = 1990-010A
CENTER_NAME    = EARTH
REF_FRAME      = TEME
TIME_SYSTEM    = UTC
MEAN_ELEMENT_THEORY = SGP/SGP4

EPOCH          = 2026-02-21T11:48:49.723488
MEAN_MOTION    = 15.11162641
ECCENTRICITY   = .00106025
INCLINATION    = 82.4668
RA_OF_ASC_NODE = 63.3850
ARG_OF_PERICENTER = 38.2884
MEAN_ANOMALY   = 321.9097

EPHEMERIS_TYPE = 0
CLASSIFICATION_TYPE = U
NORAD_CAT_ID   = 20465
ELEMENT_SET_NO = 999
REV_AT_EPOCH   = 93979
BSTAR          = .2351546E-3
MEAN_MOTION_DOT = .3977E-4
MEAN_MOTION_DDOT = 0

CCSDS_OMM_VERS = 2.0
CREATION_DATE  = 
ORIGINATOR     = 

OBJECT_NAME    = SL-14 R/B
OBJECT_ID      = 1990-010B
CENTER_NAME    = EARTH
REF_FRAME      = TEME
TIME_SYSTEM    = UTC
MEAN_ELEMENT_THEORY = SGP/SGP4

EPOCH          = 2026-02-21T16:50:51.859104
MEAN_MOTION    = 14.83553947
ECCENTRICITY   = .0019738
INCLINATION    = 82.5005
RA_OF_ASC_NODE = 282.4092
ARG_OF_PERICENTER = 357.0878
MEAN_ANOMALY   = 3.0219

EPHEMERIS_TYPE = 0
CLASSIFICATION_TYPE = U
NORAD_CAT_ID   = 20466
ELEMENT_SET_NO = 999
REV_AT_EPOCH   = 92611
BSTAR          = .37152E-4
MEAN_MOTION_DOT = .331E-5
MEAN_MOTION_DDOT = 0

CCSDS_OMM_VERS = 2.0
CREATION_DATE  = 
ORIGINATOR     = 

OBJECT_NAME    = SL-14 R/B
OBJECT_ID      = 1990-018B
CENTER_NAME    = EARTH
REF_FRAME      = TEME
TIME_SYSTEM    = UTC
MEAN_ELEMENT_THEORY = SGP/SGP4

EPOCH          = 2026-02-21T12:02:41.817696
MEAN_MOTION    = 14.82125377
ECCENTRICITY   = .0017187
INCLINATION    = 82.5179
RA_OF_ASC_NODE = 238.2225
ARG_OF_PERICENTER = 141.4900
MEAN_ANOMALY   = 218.7545

EPHEMERIS_TYPE = 0
CLASSIFICATION_TYPE = U
NORAD_CAT_ID   = 20511
ELEMENT_SET_NO = 999
REV_AT_EPOCH   = 92018
BSTAR          = .47618E-4
MEAN_MOTION_DOT = .403E-5
MEAN_MOTION_DDOT = 0

CCSDS_OMM_VERS = 2.0
CREATION_DATE  = 
ORIGINATOR     = 

OBJECT_NAME    = HST
OBJECT_ID      = 1990-037B
CENTER_NAME    = EARTH
REF_FRAME      = TEME
TIME_SYSTEM    = UTC
MEAN_ELEMENT_THEORY = SGP/SGP4

EPOCH          = 2026-02-21T13:31:26.002560
MEAN_MOTION    = 15.29203976
ECCENTRICITY   = .000109
INCLINATION    = 28.4686
RA_OF_ASC_NODE = 149.9853
ARG_OF_PERICENTER = 298.8097
MEAN_ANOMALY   = 61.2389

EPHEMERIS_TYPE = 0
CLASSIFICATION_TYPE = U
NORAD_CAT_ID   = 20580
ELEMENT_SET_NO = 999
REV_AT_EPOCH   = 77084
BSTAR          = .23461E-3
MEAN_MOTION_DOT = .7071E-4
MEAN_MOTION_DDOT = 0

CCSDS_OMM_VERS = 2.0
CREATION_DATE  = 
ORIGINATOR     = 

OBJECT_NAME    = SL-16 R/B
OBJECT_ID      = 1990-046B
CENTER_NAME    = EARTH
REF_FRAME      = TEME
TIME_SYSTEM    = UTC
MEAN_ELEMENT_THEORY = SGP/SGP4

EPOCH          = 2026-02-21T05:25:28.630848
MEAN_MOTION    = 14.15014255
ECCENTRICITY   = .0015564
INCLINATION    = 71.0018
RA_OF_ASC_NODE = 332.4894
ARG_OF_PERICENTER = 322.3236
MEAN_ANOMALY   = 37.6795

EPHEMERIS_TYPE = 0
CLASSIFICATION_TYPE = U
NORAD_CAT_ID   = 20625
ELEMENT_SET_NO = 999
REV_AT_EPOCH   = 84606
BSTAR          = .10782E-3
MEAN_MOTION_DOT = .161E-5
MEAN_MOTION_DDOT = 0

CCSDS_OMM_VERS = 2.0
CREATION_DATE  = 
ORIGINATOR     = 

OBJECT_NAME    = COSMOS 2084
OBJECT_ID      = 1990-055A
CENTER_NAME    = EARTH
REF_FRAME      = TEME
TIME_SYSTEM    = UTC
MEAN_ELEMENT_THEORY = SGP/SGP4

EPOCH          = 2026-02-21T09:12:02.440512
MEAN_MOTION    = 15.05535348
ECCENTRICITY   = .00195782
INCLINATION    = 62.7909
RA_OF_ASC_NODE = 31.1865
ARG_OF_PERICENTER = 186.3248
MEAN_ANOMALY   = 173.7609

EPHEMERIS_TYPE = 0
CLASSIFICATION_TYPE = U
NORAD_CAT_ID   = 20663
ELEMENT_SET_NO = 999
REV_AT_EPOCH   = 93386
BSTAR          = .19434641E-3
MEAN_MOTION_DOT = .2619E-4
MEAN_MOTION_DDOT = 0

CCSDS_OMM_VERS = 2.0
CREATION_DATE  = 
ORIGINATOR     = 

OBJECT_NAME    = SL-6 R/B(2)
OBJECT_ID      = 1990-055D
CENTER_NAME    = EARTH
REF_FRAME      = TEME
TIME_SYSTEM    = UTC
MEAN_ELEMENT_THEORY = SGP/SGP4

EPOCH          = 2026-02-21T16:14:01.644288
MEAN_MOTION    = 15.03510591
ECCENTRICITY   = .0022349
INCLINATION    = 62.7836
RA_OF_ASC_NODE = 308.3043
ARG_OF_PERICENTER = 342.8305
MEAN_ANOMALY   = 17.2035

EPHEMERIS_TYPE = 0
CLASSIFICATION_TYPE = U
NORAD_CAT_ID   = 20666
ELEMENT_SET_NO = 999
REV_AT_EPOCH   = 93578
BSTAR          = .14254E-3
MEAN_MOTION_DOT = .1762E-4
MEAN_MOTION_DDOT = 0

CCSDS_OMM_VERS = 2.0
CREATION_DATE  = 
ORIGINATOR     = 

OBJECT_NAME    = SL-8 R/B
OBJECT_ID      = 1990-078B
CENTER_NAME    = EARTH
REF_FRAME      = TEME
TIME_SYSTEM    = UTC
MEAN_ELEMENT_THEORY = SGP/SGP4

EPOCH          = 2026-02-21T15:31:27.871968
MEAN_MOTION    = 14.88486037
ECCENTRICITY   = .0365631
INCLINATION    = 82.8999
RA_OF_ASC_NODE = 265.7336
ARG_OF_PERICENTER = 67.8033
MEAN_ANOMALY   = 296.1549

EPHEMERIS_TYPE = 0
CLASSIFICATION_TYPE = U
NORAD_CAT_ID   = 20775
ELEMENT_SET_NO = 999
REV_AT_EPOCH   = 80691
BSTAR          = .4009E-3
MEAN_MOTION_DOT = .13672E-3
MEAN_MOTION_DDOT = 0

CCSDS_OMM_VERS = 2.0
CREATION_DATE  = 
ORIGINATOR     = 

OBJECT_NAME    = SL-8 R/B
OBJECT_ID      = 1991-006B
CENTER_NAME    = EARTH
REF_FRAME      = TEME
TIME_SYSTEM    = UTC
MEAN_ELEMENT_THEORY = SGP/SGP4

EPOCH          = 2026-02-21T17:27:15.434208
MEAN_MOTION    = 13.77492497
ECCENTRICITY   = .0023715
INCLINATION    = 82.9454
RA_OF_ASC_NODE = 181.9121
ARG_OF_PERICENTER = 81.1079
MEAN_ANOMALY   = 31.3611

EPHEMERIS_TYPE = 0
CLASSIFICATION_TYPE = U
NORAD_CAT_ID   = 21088
ELEMENT_SET_NO = 999
REV_AT_EPOCH   = 76187
BSTAR          = .29694E-4
MEAN_MOTION_DOT = .45E-6
MEAN_MOTION_DDOT = 0

CCSDS_OMM_VERS = 2.0
CREATION_DATE  = 
ORIGINATOR     = 

OBJECT_NAME    = OKEAN-3
OBJECT_ID      = 1991-039A
CENTER_NAME    = EARTH
REF_FRAME      = TEME
TIME_SYSTEM    = UTC
MEAN_ELEMENT_THEORY = SGP/SGP4

EPOCH          = 2026-02-21T18:51:40.991040
MEAN_MOTION    = 15.04678428
ECCENTRICITY   = .0015203
INCLINATION    = 82.5209
RA_OF_ASC_NODE = 352.2470
ARG_OF_PERICENTER = 30.4575
MEAN_ANOMALY   = 329.7531

EPHEMERIS_TYPE = 0
CLASSIFICATION_TYPE = U
NORAD_CAT_ID   = 21397
ELEMENT_SET_NO = 999
REV_AT_EPOCH   = 86264
BSTAR          = .23157E-3
MEAN_MOTION_DOT = .3292E-4
MEAN_MOTION_DDOT = 0

CCSDS_OMM_VERS = 2.0
CREATION_DATE  = 
ORIGINATOR     = 

OBJECT_NAME    = COSMOS 2151
OBJECT_ID      = 1991-042A
CENTER_NAME    = EARTH
REF_FRAME      = TEME
TIME_SYSTEM    = UTC
MEAN_ELEMENT_THEORY = SGP/SGP4

EPOCH          = 2026-02-21T19:22:46.209792
MEAN_MOTION    = 15.00038943
ECCENTRICITY   = .001404
INCLINATION    = 82.4944
RA_OF_ASC_NODE = 98.9994
ARG_OF_PERICENTER = 111.1541
MEAN_ANOMALY   = 249.1185

EPHEMERIS_TYPE = 0
CLASSIFICATION_TYPE = U
NORAD_CAT_ID   = 21422
ELEMENT_SET_NO = 999
REV_AT_EPOCH   = 86081
BSTAR          = .1254E-3
MEAN_MOTION_DOT = .159E-4
MEAN_MOTION_DDOT = 0

